{
  "norad_id": 63553,
  "name": "STARLINK-11697 [DTC]",
  "history": [
    {
      "epoch": "2026-03-28T21:48:51.234048Z",
      "apogee_km": 358.33629018207466,
      "perigee_km": 354.0546016129738,
      "latitude_deg": 1.1913261342643457e-06,
      "longitude_deg": -115.79208852081506,
      "height_km": 355.47828592141406,
      "semi_major_axis_km": 6734.332445897524,
      "eccentricity": 0.0003179,
      "inclination_deg": 43.0012,
      "raan_deg": 37.744,
      "arg_perigee_deg": 283.2593,
      "mean_anomaly_deg": 76.792,
      "mean_motion_rev_day": 15.70944833
    }
  ]
}